{"fetched_at":"2026-07-19T17:31:54.212Z","source":"https://celestrak.org/NORAD/elements/gp.php?NAME=SENTINEL&FORMAT=JSON","constellation":"sentinel-6","records":[{"OBJECT_NAME":"SENTINEL-6A","OBJECT_ID":"2020-086A","EPOCH":"2026-07-19T00:26:41.840448","CLASSIFICATION_TYPE":"U","MEAN_MOTION":12.80930206,"ECCENTRICITY":0.00077857,"INCLINATION":66.0411,"RA_OF_ASC_NODE":68.9392,"ARG_OF_PERICENTER":269.7181,"MEAN_ANOMALY":90.2942,"EPHEMERIS_TYPE":0,"NORAD_CAT_ID":46984,"ELEMENT_SET_NO":999,"REV_AT_EPOCH":26440,"BSTAR":0.000014562853,"MEAN_MOTION_DOT":-5.8e-7,"MEAN_MOTION_DDOT":0},{"OBJECT_NAME":"SENTINEL-6B","OBJECT_ID":"2025-264A","EPOCH":"2026-07-19T00:27:11.902464","CLASSIFICATION_TYPE":"U","MEAN_MOTION":12.80930222,"ECCENTRICITY":0.00078446,"INCLINATION":66.0411,"RA_OF_ASC_NODE":69.0646,"ARG_OF_PERICENTER":268.6081,"MEAN_ANOMALY":91.4036,"EPHEMERIS_TYPE":0,"NORAD_CAT_ID":66514,"ELEMENT_SET_NO":999,"REV_AT_EPOCH":3124,"BSTAR":0.000024711764,"MEAN_MOTION_DOT":-5.5e-7,"MEAN_MOTION_DDOT":0}]}
